NORAD_CAT_ID,OBJECT_NAME,OBJECT_TYPE,EPOCH,MEAN_MOTION,ECCENTRICITY,INCLINATION,RA_OF_ASC_NODE,ARG_OF_PERICENTER,MEAN_ANOMALY,BSTAR,MEAN_MOTION_DOT,MEAN_MOTION_DDOT,TLE_LINE0,TLE_LINE1,TLE_LINE2,SEMIMAJOR_AXIS,PERIOD,APOGEE,PERIGEE,DECAYED
52090.0,STARLINK-3712,PAYLOAD,2024-07-22 12:19:35,15.08852566,0.0001472,53.2146,240.9728,86.8426,273.2734,6.0297e-05,6.72e-06,0.0,0 STARLINK-3712,1 52090U 22029C   24204.51360392  .00000672  00000-0  60297-4 0  9995,2 52090  53.2146 240.9728 0001472  86.8426 273.2734 15.08852566130805,6917.842,95.437,540.725,538.689,0.0
52090.0,STARLINK-3712,PAYLOAD,2024-07-22 13:54:58,15.08853888,0.0001455,53.2146,240.6754,86.527,273.5888,6.866e-05,8.05e-06,0.0,0 STARLINK-3712,1 52090U 22029C   24204.57984271  .00000805  00000-0  68660-4 0  9999,2 52090  53.2146 240.6754 0001455  86.5270 273.5888 15.08853888130818,6917.838,95.437,540.709,538.696,0.0
52090.0,STARLINK-3712,PAYLOAD,2024-07-22 21:51:53,15.08854901,0.0001712,53.2146,239.1886,167.7073,192.3961,-0.00030756,-5.182e-05,0.0,0 STARLINK-3712,1 52090U 22029C   24204.91103250 -.00005182  00000-0 -30756-3 0  9996,2 52090  53.2146 239.1886 0001712 167.7073 192.3961 15.08854901130868,6917.835,95.437,540.884,538.516,0.0
52090.0,STARLINK-3712,PAYLOAD,2024-07-23 02:38:00,15.08906039,0.0001612,53.2145,238.2962,70.045,290.0715,-0.0017735,-0.00028453,0.0,0 STARLINK-3712,1 52090U 22029C   24205.10972843 -.00028453  00000-0 -17735-2 0  9997,2 52090  53.2145 238.2962 0001612  70.0450 290.0715 15.08906039130892,6917.679,95.433,540.659,538.428,0.0
52090.0,STARLINK-3712,PAYLOAD,2024-07-23 12:10:21,15.08848608,0.0001522,53.2157,236.5119,94.0318,266.0849,0.0001341,1.847e-05,0.0,0 STARLINK-3712,1 52090U 22029C   24205.50719525  .00001847  00000-0  13410-3 0  9990,2 52090  53.2157 236.5119 0001522  94.0318 266.0849 15.08848608130954,6917.854,95.437,540.772,538.666,0.0
52090.0,STARLINK-3712,PAYLOAD,2024-07-23 13:45:44,15.08849473,0.0001522,53.2157,236.2145,94.0459,266.0707,0.00014113,1.959e-05,0.0,0 STARLINK-3712,1 52090U 22029C   24205.57343440  .00001959  00000-0  14113-3 0  9991,2 52090  53.2157 236.2145 0001522  94.0459 266.0707 15.08849473130961,6917.851,95.437,540.769,538.664,0.0
52090.0,STARLINK-3712,PAYLOAD,2024-07-23 21:42:40,15.08848489,0.0001513,53.2157,234.7277,93.9511,266.1654,0.00018256,2.619e-05,0.0,0 STARLINK-3712,1 52090U 22029C   24205.90463263  .00002619  00000-0  18256-3 0  9990,2 52090  53.2157 234.7277 0001513  93.9511 266.1654 15.08848489131012,6917.854,95.437,540.766,538.673,0.0
52090.0,STARLINK-3712,PAYLOAD,2024-07-24 04:04:14,15.08826135,0.00014,53.2156,233.5386,90.0685,270.0467,-5.4143e-06,-3.74e-06,0.0,0 STARLINK-3712,1 52090U 22029C   24206.16961612 -.00000374  00000-0 -54143-5 0  9995,2 52090  53.2156 233.5386 0001400  90.0685 270.0467 15.08826135131058,6917.923,95.438,540.756,538.819,0.0
52090.0,STARLINK-3712,PAYLOAD,2024-07-24 13:36:33,15.08829469,0.0001435,53.2155,231.7541,91.5206,268.595,-8.4708e-06,-4.23e-06,0.0,0 STARLINK-3712,1 52090U 22029C   24206.56705586 -.00000423  00000-0 -84708-5 0  9990,2 52090  53.2155 231.7541 0001435  91.5206 268.5950 15.08829469131112,6917.913,95.438,540.77,538.785,0.0
52090.0,STARLINK-3712,PAYLOAD,2024-07-24 21:33:29,15.08834219,0.0001385,53.2156,230.2674,91.4105,268.7046,-1.2857e-05,-4.92e-06,0.0,0 STARLINK-3712,1 52090U 22029C   24206.89825422 -.00000492  00000-0 -12857-4 0  9999,2 52090  53.2156 230.2674 0001385  91.4105 268.7046 15.08834219131167,6917.898,95.438,540.721,538.805,0.0
52090.0,STARLINK-3712,PAYLOAD,2024-07-25 05:30:24,15.08836954,0.0001378,53.2155,228.7805,90.4793,269.6357,4.6899e-05,4.58e-06,0.0,0 STARLINK-3712,1 52090U 22029C   24207.22945364  .00000458  00000-0  46899-4 0  9998,2 52090  53.2155 228.7805 0001378  90.4793 269.6357 15.08836954131217,6917.89,95.438,540.708,538.801,0.0
52090.0,STARLINK-3712,PAYLOAD,2024-07-25 21:24:15,15.08847797,0.00013,53.2155,225.8069,93.8519,266.2622,-2.3718e-05,-6.65e-06,0.0,0 STARLINK-3712,1 52090U 22029C   24207.89184755 -.00000665  00000-0 -23718-4 0  9997,2 52090  53.2155 225.8069 0001300  93.8519 266.2622 15.08847797131311,6917.857,95.437,540.621,538.822,0.0
52090.0,STARLINK-3712,PAYLOAD,2024-07-26 11:42:43,15.08852242,0.0001328,53.2145,223.1302,88.1055,272.0089,0.00040743,6.204e-05,0.0,0 STARLINK-3712,1 52090U 22029C   24208.48800917  .00006204  00000-0  40743-3 0  9997,2 52090  53.2145 223.1302 0001328  88.1055 272.0089 15.08852242131406,6917.843,95.437,540.627,538.789,0.0
52090.0,STARLINK-3712,PAYLOAD,2024-07-26 13:18:07,15.08854798,0.0001318,53.2144,222.8328,88.799,271.3153,0.0004343,6.633e-05,0.0,0 STARLINK-3712,1 52090U 22029C   24208.55424813  .00006633  00000-0  43430-3 0  9994,2 52090  53.2144 222.8328 0001318  88.7990 271.3153 15.08854798131415,6917.835,95.437,540.612,538.788,0.0
52090.0,STARLINK-3712,PAYLOAD,2024-07-26 21:15:02,15.08845134,0.0001332,53.2144,221.3459,88.9882,271.1263,0.00012673,1.73e-05,0.0,0 STARLINK-3712,1 52090U 22029C   24208.88544950  .00001730  00000-0  12673-3 0  9993,2 52090  53.2144 221.3459 0001332  88.9882 271.1263 15.08845134131461,6917.865,95.437,540.651,538.808,0.0
52090.0,STARLINK-3712,PAYLOAD,2024-07-27 05:11:58,15.08847482,0.0001332,53.2145,219.859,88.4693,271.6452,0.0001549,2.179e-05,0.0,0 STARLINK-3712,1 52090U 22029C   24209.21664773  .00002179  00000-0  15490-3 0  9995,2 52090  53.2145 219.8590 0001332  88.4693 271.6452 15.08847482131514,6917.858,95.437,540.644,538.801,0.0
52090.0,STARLINK-3712,PAYLOAD,2024-07-27 06:47:21,15.08848681,0.000134,53.2144,219.5616,88.2949,271.8196,0.00016982,2.416e-05,0.0,0 STARLINK-3712,1 52090U 22029C   24209.28288694  .00002416  00000-0  16982-3 0  9997,2 52090  53.2144 219.5616 0001340  88.2949 271.8196 15.08848681131520,6917.854,95.437,540.646,538.792,0.0
52090.0,STARLINK-3712,PAYLOAD,2024-07-27 09:58:07,15.08850338,0.0001351,53.2144,218.9669,88.2509,271.8638,0.00018405,2.643e-05,0.0,0 STARLINK-3712,1 52090U 22029C   24209.41536562  .00002643  00000-0  18405-3 0  9996,2 52090  53.2144 218.9669 0001351  88.2509 271.8638 15.08850338131540,6917.849,95.437,540.648,538.779,0.0
52090.0,STARLINK-3712,PAYLOAD,2024-07-28 05:02:45,15.08837931,0.0001383,53.2143,215.3982,88.3453,271.7697,-6.6863e-05,-1.352e-05,0.0,0 STARLINK-3712,1 52090U 22029C   24210.21024887 -.00001352  00000-0 -66863-4 0  9998,2 52090  53.2143 215.3982 0001383  88.3453 271.7697 15.08837931131663,6917.887,95.438,540.708,538.795,0.0
52090.0,STARLINK-3712,PAYLOAD,2024-07-28 09:48:54,15.08844522,0.0001379,53.2153,214.5061,89.784,270.3311,3.724e-05,3.05e-06,0.0,0 STARLINK-3712,1 52090U 22029C   24210.40896933  .00000305  00000-0  37240-4 0  9990,2 52090  53.2153 214.5061 0001379  89.7840 270.3311 15.08844522131698,6917.867,95.437,540.686,538.778,0.0
52090.0,STARLINK-3712,PAYLOAD,2024-07-29 11:15:05,15.08842602,0.0001488,53.2155,209.7465,98.1625,261.9536,3.6627e-05,2.95e-06,0.0,0 STARLINK-3712,1 52090U 22029C   24211.46880967  .00000295  00000-0  36627-4 0  9993,2 52090  53.2155 209.7465 0001488  98.1625 261.9536 15.08842602131850,6917.872,95.437,540.767,538.708,0.0
52090.0,STARLINK-3712,PAYLOAD,2024-07-30 06:19:42,15.08843676,0.0001476,53.2157,206.1786,97.0744,263.0416,0.00010993,1.462e-05,0.0,0 STARLINK-3712,1 52090U 22029C   24212.26368734  .00001462  00000-0  10993-3 0  9999,2 52090  53.2157 206.1786 0001476  97.0744 263.0416 15.08843676131971,6917.869,95.437,540.755,538.713,0.0
52090.0,STARLINK-3712,PAYLOAD,2024-07-31 06:10:30,15.08836984,0.0001491,53.2157,201.7185,95.1882,264.928,4.4647e-05,4.23e-06,0.0,0 STARLINK-3712,1 52090U 22029C   24213.25729512  .00000423  00000-0  44647-4 0  9994,2 52090  53.2157 201.7185 0001491  95.1882 264.9280 15.08836984132125,6917.89,95.438,540.786,538.723,0.0
52090.0,STARLINK-3712,PAYLOAD,2024-07-31 15:42:49,15.08836102,0.0001484,53.2157,199.9344,94.7474,265.3688,3.0604e-05,1.99e-06,0.0,0 STARLINK-3712,1 52090U 22029C   24213.65473658  .00000199  00000-0  30604-4 0  9993,2 52090  53.2157 199.9344 0001484  94.7474 265.3688 15.08836102132189,6917.892,95.438,540.784,538.731,0.0
52090.0,STARLINK-3712,PAYLOAD,2024-08-01 04:25:54,15.08838261,0.000153,53.2158,197.5564,97.1973,262.9193,3.7015e-05,3.01e-06,0.0,0 STARLINK-3712,1 52090U 22029C   24214.18465612  .00000301  00000-0  37015-4 0  9991,2 52090  53.2158 197.5564 0001530  97.1973 262.9193 15.08838261132262,6917.886,95.438,540.809,538.692,0.0
52090.0,STARLINK-3712,PAYLOAD,2024-08-01 21:55:09,15.08830962,0.0001461,53.2151,194.2854,97.3737,262.7421,4.219e-05,3.83e-06,0.0,0 STARLINK-3712,1 52090U 22029C   24214.91330303  .00000383  00000-0  42190-4 0  9990,2 52090  53.2151 194.2854 0001461  97.3737 262.7421 15.08830962132378,6917.908,95.438,540.784,538.762,0.0
52090.0,STARLINK-3712,PAYLOAD,2024-08-02 04:16:42,15.08824339,0.0001272,53.2153,193.0917,87.2467,272.8671,-3.2176e-05,-8e-06,0.0,0 STARLINK-3712,1 52090U 22029C   24215.17827256 -.00000800  00000-0 -32176-4 0  9996,2 52090  53.2153 193.0917 0001272  87.2467 272.8671 15.08824339132410,6917.928,95.439,540.673,538.913,0.0
52090.0,STARLINK-3712,PAYLOAD,2024-08-02 07:27:29,15.08821249,0.0001193,53.2152,192.4989,83.12,276.9928,-5.3041e-05,-1.131e-05,0.0,0 STARLINK-3712,1 52090U 22029C   24215.31075645 -.00001131  00000-0 -53041-4 0  9991,2 52090  53.2152 192.4989 0001193  83.1200 276.9928 15.08821249132432,6917.938,95.439,540.628,538.977,0.0
52090.0,STARLINK-3712,PAYLOAD,2024-08-02 15:24:24,15.08826332,0.0001273,53.2161,191.0134,88.8023,271.3115,-7.5356e-06,-4.08e-06,0.0,0 STARLINK-3712,1 52090U 22029C   24215.64195517 -.00000408  00000-0 -75356-5 0  9998,2 52090  53.2161 191.0134 0001273  88.8023 271.3115 15.08826332132483,6917.922,95.438,540.668,538.907,0.0
52090.0,STARLINK-3712,PAYLOAD,2024-08-03 04:07:29,15.0884005,0.0001157,53.2148,188.6334,85.9142,274.1983,3.5001e-05,2.69e-06,0.0,0 STARLINK-3712,1 52090U 22029C   24216.17186910  .00000269  00000-0  35001-4 0  9999,2 52090  53.2148 188.6334 0001157  85.9142 274.1983 15.08840050132569,6917.88,95.438,540.546,538.945,0.0
